H1 CPF  1  DLR 2022 08 12 10  7242 technosat            
H2  1704205 6203    42829 2022 08 12 00 00 00 2022 08 19 00 00 00    60 1 1  0 0 0
H9
10 0 59808  14400.000000  0       -780044.262        459094.996      -6921817.505
10 0 59808  14460.000000  0       -511023.551        827774.852      -6913242.585
10 0 59808  14520.000000  0       -236668.354       1190622.166      -6875598.802
10 0 59808  14580.000000  0         41818.088       1546081.730      -6809049.264
10 0 59808  14640.000000  0        323202.141       1892639.856      -6713876.724
10 0 59808  14700.000000  0        606225.172       2228830.728      -6590482.477
10 0 59808  14760.000000  0        889609.103       2553242.431      -6439384.732
10 0 59808  14820.000000  0       1172062.012       2864522.766      -6261216.583
10 0 59808  14880.000000  0       1452283.844       3161384.832      -6056723.535
10 0 59808  14940.000000  0       1728972.274       3442612.257      -5826760.621
10 0 59808  15000.000000  0       2000828.631       3707064.136      -5572289.121
10 0 59808  15060.000000  0       2266563.884       3953679.680      -5294372.863
10 0 59808  15120.000000  0       2524904.657       4181482.550      -4994174.096
10 0 59808  15180.000000  0       2774599.265       4389584.848      -4672948.951
10 0 59808  15240.000000  0       3014423.730       4577190.729      -4332042.461
10 0 59808  15300.000000  0       3243187.727       4743599.580      -3972883.197
10 0 59808  15360.000000  0       3459740.462       4888208.796      -3596977.569
10 0 59808  15420.000000  0       3662976.511       5010516.169      -3205903.750
10 0 59808  15480.000000  0       3851841.488       5110121.771      -2801305.147
10 0 59808  15540.000000  0       4025337.465       5186729.325      -2384883.633
10 0 59808  15600.000000  0       4182528.224       5240147.162      -1958392.530
10 0 59808  15660.000000  0       4322544.279       5270288.737      -1523629.275
10 0 59808  15720.000000  0       4444587.642       5277172.644      -1082427.840
10 0 59808  15780.000000  0       4547936.297       5260922.084       -636650.910
10 0 59808  15840.000000  0       4631948.299       5221763.791       -188181.933
10 0 59808  15900.000000  0       4696065.515       5160026.484        261082.939
10 0 59808  15960.000000  0       4739816.934       5076138.833        709242.981
10 0 59808  16020.000000  0       4762821.592       4970627.013       1154401.006
10 0 59808  16080.000000  0       4764791.151       4844111.837       1594671.500
10 0 59808  16140.000000  0       4745532.113       4697305.410       2028188.795
10 0 59808  16200.000000  0       4704947.507       4531007.288       2453115.238
10 0 59808  16260.000000  0       4643037.997       4346100.188       2867649.192
10 0 59808  16320.000000  0       4559902.534       4143545.384       3270032.754
10 0 59808  16380.000000  0       4455738.623       3924377.732       3658559.336
10 0 59808  16440.000000  0       4330842.007       3689700.324       4031580.982
10 0 59808  16500.000000  0       4185605.944       3440678.913       4387515.303
10 0 59808  16560.000000  0       4020520.156       3178536.169       4724852.217
10 0 59808  16620.000000  0       3836169.196       2904545.620       5042160.576
10 0 59808  16680.000000  0       3633230.121       2620025.248       5338094.185
10 0 59808  16740.000000  0       3412469.928       2326331.152       5611397.274
10 0 59808  16800.000000  0       3174742.634       2024851.074       5860909.755
10 0 59808  16860.000000  0       2920985.931       1716997.773       6085572.070
10 0 59808  16920.000000  0       2652217.426       1404202.328       6284429.573
10 0 59808  16980.000000  0       2369530.502       1087907.452       6456636.433
10 0 59808  17040.000000  0       2074089.844        769560.872       6601459.098
10 0 59808  17100.000000  0       1767126.627        450608.763       6718279.362
10 0 59808  17160.000000  0       1449933.369        132489.231       6806596.987
10 0 59808  17220.000000  0       1123858.498       -183374.162       6866031.888
10 0 59808  17280.000000  0        790300.601       -495578.864       6896325.776
10 0 59808  17340.000000  0        450702.445       -802749.579       6897343.243
10 0 59808  17400.000000  0        106544.738      -1103544.312       6869072.452
10 0 59808  17460.000000  0       -240660.326      -1396660.295       6811625.294
10 0 59808  17520.000000  0       -589375.706      -1680839.688       6725237.049
10 0 59808  17580.000000  0       -938046.342      -1954875.049       6610265.517
10 0 59808  17640.000000  0      -1285106.048      -2217614.505       6467189.628
10 0 59808  17700.000000  0      -1628984.462      -2467966.637       6296607.663
10 0 59808  17760.000000  0      -1968114.163      -2704905.115       6099235.067
10 0 59808  17820.000000  0      -2300937.863      -2927473.084       5875901.760
10 0 59808  17880.000000  0      -2625915.721      -3134787.264       5627548.945
10 0 59808  17940.000000  0      -2941532.707      -3326041.676       5355225.355
10 0 59808  18000.000000  0      -3246305.909      -3500510.950       5060082.929
10 0 59808  18060.000000  0      -3538791.668      -3657553.239       4743372.027
10 0 59808  18120.000000  0      -3817592.603      -3796612.740       4406436.238
10 0 59808  18180.000000  0      -4081364.509      -3917221.813       4050706.745
10 0 59808  18240.000000  0      -4328823.033      -4019002.655       3677696.257
10 0 59808  18300.000000  0      -4558750.128      -4101668.538       3288992.600
10 0 59808  18360.000000  0      -4770000.303      -4165024.640       2886251.933
10 0 59808  18420.000000  0      -4961506.578      -4208968.419       2471191.541
10 0 59808  18480.000000  0      -5132286.071      -4233489.493       2045582.287
10 0 59808  18540.000000  0      -5281445.167      -4238669.007       1611240.790
10 0 59808  18600.000000  0      -5408184.288      -4224678.554       1170021.414
10 0 59808  18660.000000  0      -5511802.235      -4191778.648        723808.042
10 0 59808  18720.000000  0      -5591700.029      -4140316.730        274505.672
10 0 59808  18780.000000  0      -5647384.258      -4070724.734       -175968.052
10 0 59808  18840.000000  0      -5678469.912      -3983516.247       -625691.418
10 0 59808  18900.000000  0      -5684682.656      -3879283.238      -1072747.254
10 0 59808  18960.000000  0      -5665860.494      -3758692.344      -1515231.503
10 0 59808  19020.000000  0      -5621954.830      -3622480.804      -1951261.631
10 0 59808  19080.000000  0      -5553030.993      -3471452.101      -2378984.848
10 0 59808  19140.000000  0      -5459268.237      -3306471.333      -2796586.197
10 0 59808  19200.000000  0      -5340959.120      -3128460.282      -3202296.419
10 0 59808  19260.000000  0      -5198508.371      -2938392.257      -3594399.497
10 0 59808  19320.000000  0      -5032431.235      -2737286.752      -3971239.942
10 0 59808  19380.000000  0      -4843351.277      -2526203.939      -4331229.751
10 0 59808  19440.000000  0      -4631997.658      -2306239.035      -4672854.987
10 0 59808  19500.000000  0      -4399201.957      -2078516.597      -4994681.973
10 0 59808  19560.000000  0      -4145894.531      -1844184.731      -5295363.094
10 0 59808  19620.000000  0      -3873100.433      -1604409.260      -5573642.159
10 0 59808  19680.000000  0      -3581934.933      -1360367.910      -5828359.296
10 0 59808  19740.000000  0      -3273598.684      -1113244.546      -6058455.413
10 0 59808  19800.000000  0      -2949372.524       -864223.456      -6262976.221
10 0 59808  19860.000000  0      -2610611.957       -614483.745      -6441075.789
10 0 59808  19920.000000  0      -2258741.313       -365193.853      -6592019.643
10 0 59808  19980.000000  0      -1895247.629       -117506.194      -6715187.354
10 0 59808  20040.000000  0      -1521674.367        127447.990      -6810074.627
10 0 59808  20100.000000  0      -1139614.965        368563.610      -6876295.068
10 0 59808  20160.000000  0       -750706.130        604766.587      -6913581.530
10 0 59808  20220.000000  0       -356620.930        835018.525      -6921786.933
10 0 59808  20280.000000  0         40938.201       1058321.091      -6900884.606
10 0 59808  20340.000000  0        440246.548       1273720.114      -6850968.337
10 0 59808  20400.000000  0        839564.442       1480309.557      -6772252.100
10 0 59808  20460.000000  0       1237144.771       1677235.282      -6665069.109
10 0 59808  20520.000000  0       1631240.377       1863698.466      -6529870.378
10 0 59808  20580.000000  0       2020111.514       2038958.759      -6367223.041
10 0 59808  20640.000000  0       2402033.470       2202337.178      -6177808.148
10 0 59808  20700.000000  0       2775304.042       2353218.677      -5962417.928
10 0 59808  20760.000000  0       3138250.917       2491054.400      -5721952.743
10 0 59808  20820.000000  0       3489239.062       2615363.653      -5457417.677
10 0 59808  20880.000000  0       3826678.086       2725735.584      -5169918.700
10 0 59808  20940.000000  0       4149029.485       2821830.547      -4860658.331
10 0 59808  21000.000000  0       4454813.701       2903381.112      -4530930.917
10 0 59808  21060.000000  0       4742617.037       2970192.712      -4182117.479
10 0 59808  21120.000000  0       5011098.260       3022143.967      -3815680.152
10 0 59808  21180.000000  0       5258994.952       3059186.645      -3433156.312
10 0 59808  21240.000000  0       5485129.591       3081345.301      -3036152.409
10 0 59808  21300.000000  0       5688415.411       3088716.648      -2626337.433
10 0 59808  21360.000000  0       5867861.881       3081468.472      -2205435.920
10 0 59808  21420.000000  0       6022579.657       3059838.160      -1775220.738
10 0 59808  21480.000000  0       6151785.158       3024130.935      -1337505.680
10 0 59808  21540.000000  0       6254804.695       2974717.779       -894137.828
99
